{
  "type": "FeatureCollection",
  "features": [
    {
      "type": "Feature",
      "properties": {
        "norad_id": 33860,
        "name": "IRIDIUM 33 DEB",
        "group": "iridium-33-debris",
        "lat": 3.2909439504429434,
        "lon": -156.05305243872257,
        "alt_km": 676.1493024974307,
        "timestamp": "2025-12-19T16:54:44.647057+00:00",
        "meta_object_name": "IRIDIUM 33 DEB",
        "meta_object_id": "1997-051AD",
        "meta_epoch": "2025-12-19T03:17:22.779744",
        "meta_mean_motion": 14.67442314,
        "meta_eccentricity": 0.00066537,
        "meta_inclination": 86.3826,
        "meta_ra_of_asc_node": 24.4066,
        "meta_arg_of_pericenter": 333.9238,
        "meta_mean_anomaly": 86.0501,
        "meta_ephemeris_type": 0,
        "meta_classification_type": "U",
        "meta_norad_cat_id": 33860,
        "meta_element_set_no": 999,
        "meta_rev_at_epoch": 88816,
        "meta_bstar": 0.00083794443,
        "meta_mean_motion_dot": 4.764e-05,
        "meta_mean_motion_ddot": 0,
        "tle_line1": "1 33860U 97051AD  25353.13706921  .00004764  00000+0  83794-3 0  9993",
        "tle_line2": "2 33860  86.3826  24.4066 0006653 333.9238  86.0501 14.67442314888165"
      },
      "geometry": {
        "type": "Point",
        "coordinates": [
          -156.05305243872257,
          3.2909439504429434
        ]
      }
    },
    {
      "type": "Feature",
      "properties": {
        "norad_id": 33862,
        "name": "IRIDIUM 33 DEB",
        "group": "iridium-33-debris",
        "lat": -83.55063607647689,
        "lon": -111.78723320945872,
        "alt_km": 698.7780056303454,
        "timestamp": "2025-12-19T16:54:44.647069+00:00",
        "meta_object_name": "IRIDIUM 33 DEB",
        "meta_object_id": "1997-051AF",
        "meta_epoch": "2025-12-19T04:34:26.831712",
        "meta_mean_motion": 14.69572736,
        "meta_eccentricity": 0.00528294,
        "meta_inclination": 86.4085,
        "meta_ra_of_asc_node": 34.686,
        "meta_arg_of_pericenter": 47.5905,
        "meta_mean_anomaly": 19.3889,
        "meta_ephemeris_type": 0,
        "meta_classification_type": "U",
        "meta_norad_cat_id": 33862,
        "meta_element_set_no": 999,
        "meta_rev_at_epoch": 88918,
        "meta_bstar": 0.00095208441,
        "meta_mean_motion_dot": 5.8e-05,
        "meta_mean_motion_ddot": 0,
        "tle_line1": "1 33862U 97051AF  25353.19058833  .00005800  00000+0  95208-3 0  9998",
        "tle_line2": "2 33862  86.4085  34.6860 0052829  47.5905  19.3889 14.69572736889180"
      },
      "geometry": {
        "type": "Point",
        "coordinates": [
          -111.78723320945872,
          -83.55063607647689
        ]
      }
    },
    {
      "type": "Feature",
      "properties": {
        "norad_id": 33866,
        "name": "IRIDIUM 33 DEB",
        "group": "iridium-33-debris",
        "lat": -57.02917249710691,
        "lon": 84.36406245699241,
        "alt_km": 893.8053086061209,
        "timestamp": "2025-12-19T16:54:44.647081+00:00",
        "meta_object_name": "IRIDIUM 33 DEB",
        "meta_object_id": "1997-051AK",
        "meta_epoch": "2025-12-19T05:31:26.092704",
        "meta_mean_motion": 14.25293567,
        "meta_eccentricity": 0.01149116,
        "meta_inclination": 86.3,
        "meta_ra_of_asc_node": 90.2898,
        "meta_arg_of_pericenter": 140.8072,
        "meta_mean_anomaly": 248.406,
        "meta_ephemeris_type": 0,
        "meta_classification_type": "U",
        "meta_norad_cat_id": 33866,
        "meta_element_set_no": 999,
        "meta_rev_at_epoch": 86903,
        "meta_bstar": 0.00041122305,
        "meta_mean_motion_dot": 1.057e-05,
        "meta_mean_motion_ddot": 0,
        "tle_line1": "1 33866U 97051AK  25353.23016311  .00001057  00000+0  41122-3 0  9998",
        "tle_line2": "2 33866  86.3000  90.2898 0114911 140.8072 248.4060 14.25293567869034"
      },
      "geometry": {
        "type": "Point",
        "coordinates": [
          84.36406245699241,
          -57.02917249710691
        ]
      }
    },
    {
      "type": "Feature",
      "properties": {
        "norad_id": 33867,
        "name": "IRIDIUM 33 DEB",
        "group": "iridium-33-debris",
        "lat": 62.559012183081606,
        "lon": 159.4182136083546,
        "alt_km": 308.80909439489005,
        "timestamp": "2025-12-19T16:54:44.647093+00:00",
        "meta_object_name": "IRIDIUM 33 DEB",
        "meta_object_id": "1997-051AL",
        "meta_epoch": "2025-12-19T05:47:32.216640",
        "meta_mean_motion": 15.81283526,
        "meta_eccentricity": 0.00136168,
        "meta_inclination": 86.3654,
        "meta_ra_of_asc_node": 346.6955,
        "meta_arg_of_pericenter": 94.4725,
        "meta_mean_anomaly": 265.8107,
        "meta_ephemeris_type": 0,
        "meta_classification_type": "U",
        "meta_norad_cat_id": 33867,
        "meta_element_set_no": 999,
        "meta_rev_at_epoch": 89613,
        "meta_bstar": 0.0071361823,
        "meta_mean_motion_dot": 0.01596226,
        "meta_mean_motion_ddot": 0,
        "tle_line1": "1 33867U 97051AL  25353.24134510  .01596226  00000+0  71362-2 0  9998",
        "tle_line2": "2 33867  86.3654 346.6955 0013616  94.4725 265.8107 15.81283526896134"
      },
      "geometry": {
        "type": "Point",
        "coordinates": [
          159.4182136083546,
          62.559012183081606
        ]
      }
    },
    {
      "type": "Feature",
      "properties": {
        "norad_id": 33870,
        "name": "IRIDIUM 33 DEB",
        "group": "iridium-33-debris",
        "lat": -16.821438101710342,
        "lon": -123.62598001826932,
        "alt_km": 732.183173731556,
        "timestamp": "2025-12-19T16:54:44.647104+00:00",
        "meta_object_name": "IRIDIUM 33 DEB",
        "meta_object_id": "1997-051AP",
        "meta_epoch": "2025-12-19T04:30:01.525824",
        "meta_mean_motion": 14.45883065,
        "meta_eccentricity": 0.00221566,
        "meta_inclination": 86.3744,
        "meta_ra_of_asc_node": 55.4973,
        "meta_arg_of_pericenter": 157.4139,
        "meta_mean_anomaly": 228.9344,
        "meta_ephemeris_type": 0,
        "meta_classification_type": "U",
        "meta_norad_cat_id": 33870,
        "meta_element_set_no": 999,
        "meta_rev_at_epoch": 88230,
        "meta_bstar": 0.00054158262,
        "meta_mean_motion_dot": 1.949e-05,
        "meta_mean_motion_ddot": 0,
        "tle_line1": "1 33870U 97051AP  25353.18751766  .00001949  00000+0  54158-3 0  9990",
        "tle_line2": "2 33870  86.3744  55.4973 0022156 157.4139 228.9344 14.45883065882301"
      },
      "geometry": {
        "type": "Point",
        "coordinates": [
          -123.62598001826932,
          -16.821438101710342
        ]
      }
    },
    {
      "type": "Feature",
      "properties": {
        "norad_id": 33881,
        "name": "IRIDIUM 33 DEB",
        "group": "iridium-33-debris",
        "lat": -25.638802618896086,
        "lon": 101.97684759891851,
        "alt_km": 753.110899705649,
        "timestamp": "2025-12-19T16:54:44.647115+00:00",
        "meta_object_name": "IRIDIUM 33 DEB",
        "meta_object_id": "1997-051BA",
        "meta_epoch": "2025-12-18T18:38:37.341312",
        "meta_mean_motion": 14.56678227,
        "meta_eccentricity": 0.00614608,
        "meta_inclination": 86.3861,
        "meta_ra_of_asc_node": 104.1184,
        "meta_arg_of_pericenter": 155.2089,
        "meta_mean_anomaly": 356.6087,
        "meta_ephemeris_type": 0,
        "meta_classification_type": "U",
        "meta_norad_cat_id": 33881,
        "meta_element_set_no": 999,
        "meta_rev_at_epoch": 87588,
        "meta_bstar": 0.0015458281,
        "meta_mean_motion_dot": 7.103e-05,
        "meta_mean_motion_ddot": 0,
        "tle_line1": "1 33881U 97051BA  25352.77682108  .00007103  00000+0  15458-2 0  9996",
        "tle_line2": "2 33881  86.3861 104.1184 0061460 155.2089 356.6087 14.56678227875882"
      },
      "geometry": {
        "type": "Point",
        "coordinates": [
          101.97684759891851,
          -25.638802618896086
        ]
      }
    },
    {
      "type": "Feature",
      "properties": {
        "norad_id": 33884,
        "name": "IRIDIUM 33 DEB",
        "group": "iridium-33-debris",
        "lat": 82.48806568946151,
        "lon": 35.46074386953857,
        "alt_km": 635.0418205865744,
        "timestamp": "2025-12-19T16:54:44.647126+00:00",
        "meta_object_name": "IRIDIUM 33 DEB",
        "meta_object_id": "1997-051BD",
        "meta_epoch": "2025-12-19T06:51:00.175680",
        "meta_mean_motion": 14.77551072,
        "meta_eccentricity": 0.0009195,
        "meta_inclination": 86.3691,
        "meta_ra_of_asc_node": 6.8636,
        "meta_arg_of_pericenter": 298.3453,
        "meta_mean_anomaly": 76.3453,
        "meta_ephemeris_type": 0,
        "meta_classification_type": "U",
        "meta_norad_cat_id": 33884,
        "meta_element_set_no": 999,
        "meta_rev_at_epoch": 88944,
        "meta_bstar": 0.001004041,
        "meta_mean_motion_dot": 7.196e-05,
        "meta_mean_motion_ddot": 0,
        "tle_line1": "1 33884U 97051BD  25353.28541870  .00007196  00000+0  10040-2 0  9990",
        "tle_line2": "2 33884  86.3691   6.8636 0009195 298.3453  76.3453 14.77551072889448"
      },
      "geometry": {
        "type": "Point",
        "coordinates": [
          35.46074386953857,
          82.48806568946151
        ]
      }
    }
  ]
}